GPS BIIR-2  (PRN 13)    
1 24876U 97035A   16234.41925448  .00000052  00000-0  00000-0 0  9991
2 24876  55.6354 238.9186 0038414 114.8610 245.5558  2.00562236140011
GPS BIIR-3  (PRN 11)    
1 25933U 99055A   16235.52535962 -.00000025  00000-0  00000+0 0  9991
2 25933  51.4304  90.7434 0165217  89.4431 277.1639  2.00562629123653
GPS BIIR-4  (PRN 20)    
1 26360U 00025A   16235.52637956  .00000018  00000-0  00000+0 0  9992
2 26360  53.0804 167.3497 0044344  81.0645  23.0795  2.00549853119350
GPS BIIR-5  (PRN 28)    
1 26407U 00040A   16235.45699453 -.00000064  00000-0  00000+0 0  9995
2 26407  56.6936 356.7941 0200554 267.5235  70.4536  2.00569085118029
GPS BIIR-6  (PRN 14)    
1 26605U 00071A   16235.39648328  .00000055  00000-0  00000+0 0  9996
2 26605  55.2051 236.7258 0091482 248.4995 315.0919  2.00519446115610
GPS BIIR-7  (PRN 18)    
1 26690U 01004A   16235.32640494  .00000021  00000-0  00000+0 0  9999
2 26690  53.0067 170.3193 0174896 253.4268  17.0304  2.00558669114029
GPS BIIR-8  (PRN 16)    
1 27663U 03005A   16234.70293387 -.00000061  00000-0  00000-0 0  9995
2 27663  56.7665 356.5452 0085878  20.9075 249.6703  2.00578404 99379
GPS BIIR-9  (PRN 21)    
1 27704U 03010A   16234.78799525 -.00000008  00000-0  00000-0 0  9991
2 27704  53.6919 110.6595 0235888 258.9196  42.8539  2.00575954 98179
GPS BIIR-10 (PRN 22)    
1 28129U 03058A   16235.11474703  .00000021  00000-0  00000+0 0  9994
2 28129  52.8883 170.3550 0077523 253.0722 106.0730  2.00554201 92876
GPS BIIR-11 (PRN 19)    
1 28190U 04009A   16234.11351501 -.00000022  00000-0  00000+0 0  9990
2 28190  55.8322  57.8153 0104653  47.5906 311.4739  2.00569125 91037
GPS BIIR-12 (PRN 23)    
1 28361U 04023A   16235.46916157  .00000055  00000-0  00000+0 0  9994
2 28361  54.1802 232.1391 0112882 215.5668 315.7946  2.00568467 89143
GPS BIIR-13 (PRN 02)    
1 28474U 04045A   16235.45763609 -.00000014  00000-0  00000+0 0  9990
2 28474  54.0792 109.9820 0160638 240.5283 285.8218  2.00569476 86503
GPS BIIRM-1 (PRN 17)    
1 28874U 05038A   16234.57758250 -.00000025  00000-0  00000-0 0  9998
2 28874  55.9966  55.0154 0112978 249.9889 106.8223  2.00556664 79897
GPS BIIRM-2 (PRN 31)    
1 29486U 06042A   16235.22596867 -.00000017  00000-0  00000+0 0  9991
2 29486  55.5908 294.2412 0083669 336.3402  45.7203  2.00579925 72627
GPS BIIRM-3 (PRN 12)    
1 29601U 06052A   16234.63764163 -.00000061  00000-0  00000+0 0  9990
2 29601  56.7389 355.4704 0059149  43.6811 316.8296  2.00563806 71527
GPS BIIRM-4 (PRN 15)    
1 32260U 07047A   16234.45012801  .00000049  00000-0  00000-0 0  9991
2 32260  53.3086 228.7933 0082341  26.8041 333.6162  2.00565694 64914
GPS BIIRM-5 (PRN 29)    
1 32384U 07062A   16234.56527019 -.00000025  00000-0  00000-0 0  9994
2 32384  56.0541  55.5779 0006478 345.1534 234.3504  2.00553362 63614
GPS BIIRM-6 (PRN 07)    
1 32711U 08012A   16235.35925442 -.00000017  00000-0  00000+0 0  9994
2 32711  55.3156 293.6778 0100380 209.7074 149.7929  2.00568417 61847
GPS BIIRM-8 (PRN 05)    
1 35752U 09043A   16234.71147169  .00000025  00000-0  00000-0 0  9997
2 35752  54.2286 171.6607 0045817  25.2834 252.3093  2.00573969 51425
GPS BIIF-1  (PRN 25)    
1 36585U 10022A   16234.56566841 -.00000063  00000-0  00000-0 0  9999
2 36585  56.0588 352.4980 0054312  43.7991 234.3102  2.00559582 45651
GPS BIIF-2  (PRN 01)    
1 37753U 11036A   16235.57236904 -.00000012  00000-0  00000+0 0  9992
2 37753  55.2935 112.6933 0057091  28.1171 346.7686  2.00567692 37358
GPS BIIF-3  (PRN 24)    
1 38833U 12053A   16234.54226039 -.00000010  00000-0  00000-0 0  9995
2 38833  54.3459 290.9230 0044673  20.3629 339.8928  2.00556329 27618
GPS BIIF-4  (PRN 27)    
1 39166U 13023A   16234.90117406 -.00000029  00000-0  00000-0 0  9990
2 39166  55.7073  52.1148 0037281  16.5369 343.6220  2.00566710 23952
GPS BIIF-5  (PRN 30)    
1 39533U 14008A   16235.39441280 -.00000023  00000-0  00000+0 0  9999
2 39533  54.5009 296.1346 0023869 183.8378 176.2172  2.00550942 18322
GPS BIIF-6  (PRN 06)    
1 39741U 14026A   16235.18142888 -.00000008  00000-0  00000+0 0  9992
2 39741  55.2828 112.2268 0004748 275.7313  84.2978  2.00554472 16597
GPS BIIF-7  (PRN 09)    
1 40105U 14045A   16235.26654680  .00000055  00000-0  00000+0 0  9997
2 40105  54.7006 231.8932 0003350 143.4357 216.5901  2.00548381 15045
GPS BIIF-8  (PRN 03)    
1 40294U 14068A   16235.14403522  .00000027  00000-0  00000+0 0  9994
2 40294  54.9710 172.3916 0003114 293.6198  66.3414  2.00567396 13267
GPS BIIF-9  (PRN 26)    
1 40534U 15013A   16234.78799527 -.00000065  00000-0  00000+0 0  9997
2 40534  55.0231 351.8884 0009481 346.3024  13.6920  2.00576293 10326
GPS BIIF-10  (PRN 08)   
1 40730U 15033A   16235.44209696 -.00000032  00000-0  00000+0 0  9998
2 40730  55.2438  51.8998 0018848 297.6915  62.1537  2.00556208  8090
GPS BIIF-11  (PRN 10)   
1 41019U 15062A   16234.99500660  .00000027  00000-0  00000+0 0  9998
2 41019  54.9838 172.1722 0017695 206.7568 153.1457  2.00562486  5901
GPS BIIF-12  (PRN 32)   
1 41328U 16007A   16235.08114455  .00000055  00000-0  00000+0 0  9996
2 41328  54.9627 232.0052 0008352 238.7271 121.1943  2.00567547  3960
